OBJECT_NAME,OBJECT_ID,EPOCH,MEAN_MOTION,ECCENTRICITY,INCLINATION,RA_OF_ASC_NODE,ARG_OF_PERICENTER,MEAN_ANOMALY,EPHEMERIS_TYPE,CLASSIFICATION_TYPE,NORAD_CAT_ID,ELEMENT_SET_NO,REV_AT_EPOCH,BSTAR,MEAN_MOTION_DOT,MEAN_MOTION_DDOT
STARLINK-1630,2020-057R,2022-06-30T21:35:41.751456,15.06385457,.000151,53.0548,247.0962,64.7116,295.4029,0,U,46132,999,10418,-.2946E-4,-.72E-5,0
STARLINK-1637,2020-057S,2022-07-01T02:22:18.286464,15.06396563,.0001281,53.0550,206.1870,72.1143,287.9986,0,U,46133,999,10417,.4796E-4,.433E-5,0
STARLINK-1638,2020-057T,2022-06-30T18:28:34.424832,15.06385540,.0001323,53.0554,207.6536,70.8935,289.2197,0,U,46134,999,10346,.4997E-4,.463E-5,0
STARLINK-1639,2020-057U,2022-06-30T10:53:27.900960,15.06387551,.0001575,53.0539,209.0846,64.7246,295.3906,0,U,46135,999,10341,.57169E-4,.57E-5,0
STARLINK-1643,2020-057V,2022-06-30T13:37:57.654624,15.06396509,.0001502,53.0535,238.5540,73.7908,286.3246,0,U,46136,999,10301,.93776E-4,.1115E-4,0
STARLINK-1586,2020-057W,2022-06-30T20:29:21.104736,15.06391874,.0001842,53.0541,227.2983,40.3801,319.7324,0,U,46137,999,10319,.10373E-3,.1263E-4,0
STARLINK-1590,2020-057X,2022-06-30T14:04:32.094048,15.06396017,.000147,53.0541,248.4909,63.7943,296.3197,0,U,46138,999,10287,-.38584E-5,-.339E-5,0
STARLINK-1594,2020-057Z,2022-06-30T19:28:17.450976,15.06402954,.0001871,53.0534,207.4699,38.6719,321.4404,0,U,46140,999,10473,.60558E-4,.621E-5,0
STARLINK-1596,2020-057AA,2022-06-30T18:56:29.057280,15.06382756,.000142,53.0534,207.5695,65.6339,294.4798,0,U,46141,999,10346,.65666E-4,.696E-5,0
STARLINK-1597,2020-057AB,2022-06-30T20:58:33.822912,15.06380432,.0001389,53.0544,247.2029,83.5552,276.5595,0,U,46142,999,10291,.15864E-4,-.45E-6,0
STARLINK-1606,2020-057AD,2022-06-30T20:08:05.705952,15.06399593,.0001354,53.0527,227.3629,73.4077,286.7060,0,U,46144,999,9144,.82702E-4,.951E-5,0
STARLINK-1608,2020-057AF,2022-07-01T03:36:36.976608,15.06398732,.0001506,53.0553,245.9535,56.0140,304.0992,0,U,46146,999,10362,.83787E-4,.967E-5,0
STARLINK-1611,2020-057AG,2022-06-30T14:25:46.416288,15.06391357,.0001993,53.0557,248.4267,57.7671,302.3510,0,U,46147,999,10413,-.59615E-5,-.37E-5,0
STARLINK-1616,2020-057AH,2022-07-01T03:18:02.632608,15.06398373,.0001244,53.0539,226.0233,65.8332,294.2787,0,U,46148,999,10389,.53833E-4,.521E-5,0
STARLINK-1620,2020-057AJ,2022-06-30T19:40:12.461088,15.06395549,.0001414,53.0545,227.4370,65.1238,294.9897,0,U,46149,999,10446,.11093E-3,.1371E-4,0
STARLINK-1629,2020-057AK,2022-06-30T21:09:09.265536,15.06395314,.000146,53.0547,247.1631,62.4016,297.7121,0,U,46150,999,10292,.1184E-3,.1482E-4,0
STARLINK-1631,2020-057AL,2022-06-30T20:34:40.301760,15.06387210,.0001335,53.0535,227.2664,76.0761,284.0376,0,U,46151,999,10319,.82652E-4,.949E-5,0
STARLINK-1634,2020-057AM,2022-06-30T13:48:38.382336,15.06381560,.0001338,53.0549,248.5488,75.8929,284.2209,0,U,46152,999,10287,.15213E-3,.1984E-4,0
STARLINK-1636,2020-057AN,2022-06-30T13:03:29.104704,15.06393550,.0001451,53.0529,228.6893,65.4357,294.6783,0,U,46153,999,10314,-.38532E-4,-.855E-5,0
STARLINK-1642,2020-057AP,2022-06-30T13:18:06.447456,15.06386627,.0001365,53.0530,238.6448,60.2546,299.8578,0,U,46154,999,10301,.15716E-3,.2059E-4,0
STARLINK-1667,2020-057AQ,2022-06-30T18:40:33.677184,15.06382992,.0001524,53.0555,207.6300,62.7585,297.3559,0,U,46155,999,10470,.54604E-4,.532E-5,0
STARLINK-1545,2020-057AR,2022-06-30T20:02:48.082272,15.06397494,.0001364,53.0553,227.3685,58.5261,301.5861,0,U,46156,999,10444,.98034E-4,.1179E-4,0
STARLINK-1587,2020-057AS,2022-07-01T03:41:56.419872,15.06390150,.0001886,53.0547,205.9495,49.1172,310.9980,0,U,46157,999,10418,.55632E-4,.547E-5,0
STARLINK-1589,2020-057AT,2022-07-01T02:01:04.884384,15.06398095,.0001499,53.0544,206.2658,75.3894,284.7261,0,U,46158,999,10417,.87898E-4,.1028E-4,0
STARLINK-1595,2020-057AU,2022-07-01T04:35:01.344192,15.06394211,.0001473,53.0544,245.7825,60.7140,299.3996,0,U,46159,999,10362,.93768E-4,.1115E-4,0
STARLINK-1598,2020-057AV,2022-06-30T20:24:03.233952,15.06385270,.0001644,53.0539,227.3013,48.0938,312.0191,0,U,46160,999,10444,.32522E-5,-.233E-5,0
STARLINK-1600,2020-057AW,2022-06-30T19:52:11.341056,15.06396493,.0001352,53.0541,227.3988,81.1889,278.9253,0,U,46161,999,10444,.12859E-3,.1634E-4,0
STARLINK-1603,2020-057AX,2022-06-30T19:57:30.375648,15.06387904,.0001432,53.0544,227.4007,66.2980,293.8159,0,U,46162,999,10445,.77335E-5,-.166E-5,0
STARLINK-1610,2020-057AY,2022-06-30T18:19:18.249888,15.06389499,.0001688,53.0547,207.6831,52.2431,307.8711,0,U,46163,999,10346,.5251E-4,.5E-5,0
STARLINK-1612,2020-057AZ,2022-06-30T11:51:50.754816,15.06384562,.0001454,53.0533,208.8947,70.6188,289.4958,0,U,46164,999,10468,.5172E-4,.489E-5,0
