STARLINK-1630           
1 46132U 20057R   22181.89978879 -.00000720  00000+0 -29460-4 0  9994
2 46132  53.0548 247.0962 0001510  64.7116 295.4029 15.06385457104184
STARLINK-1637           
1 46133U 20057S   22182.09882276  .00000433  00000+0  47960-4 0  9997
2 46133  53.0550 206.1870 0001281  72.1143 287.9986 15.06396563104177
STARLINK-1638           
1 46134U 20057T   22181.76984288  .00000463  00000+0  49970-4 0  9993
2 46134  53.0554 207.6536 0001323  70.8935 289.2197 15.06385540103461
STARLINK-1639           
1 46135U 20057U   22181.45379515  .00000570  00000+0  57169-4 0  9999
2 46135  53.0539 209.0846 0001575  64.7246 295.3906 15.06387551103416
STARLINK-1643           
1 46136U 20057V   22181.56802841  .00001115  00000+0  93776-4 0  9995
2 46136  53.0535 238.5540 0001502  73.7908 286.3246 15.06396509103012
STARLINK-1586           
1 46137U 20057W   22181.85371649  .00001263  00000+0  10373-3 0  9990
2 46137  53.0541 227.2983 0001842  40.3801 319.7324 15.06391874103192
STARLINK-1590           
1 46138U 20057X   22181.58648257 -.00000339  00000+0 -38584-5 0  9994
2 46138  53.0541 248.4909 0001470  63.7943 296.3197 15.06396017102875
STARLINK-1594           
1 46140U 20057Z   22181.81131309  .00000621  00000+0  60558-4 0  9995
2 46140  53.0534 207.4699 0001871  38.6719 321.4404 15.06402954104734
STARLINK-1596           
1 46141U 20057AA  22181.78922520  .00000696  00000+0  65666-4 0  9992
2 46141  53.0534 207.5695 0001420  65.6339 294.4798 15.06382756103461
STARLINK-1597           
1 46142U 20057AB  22181.87400258 -.00000045  00000+0  15864-4 0  9996
2 46142  53.0544 247.2029 0001389  83.5552 276.5595 15.06380432102919
STARLINK-1606           
1 46144U 20057AD  22181.83895493  .00000951  00000+0  82702-4 0  9993
2 46144  53.0527 227.3629 0001354  73.4077 286.7060 15.06399593 91442
STARLINK-1608           
1 46146U 20057AF  22182.15042797  .00000967  00000+0  83787-4 0  9993
2 46146  53.0553 245.9535 0001506  56.0140 304.0992 15.06398732103628
STARLINK-1611           
1 46147U 20057AG  22181.60123167 -.00000370  00000+0 -59615-5 0  9998
2 46147  53.0557 248.4267 0001993  57.7671 302.3510 15.06391357104130
STARLINK-1616           
1 46148U 20057AH  22182.13753047  .00000521  00000+0  53833-4 0  9995
2 46148  53.0539 226.0233 0001244  65.8332 294.2787 15.06398373103891
STARLINK-1620           
1 46149U 20057AJ  22181.81958867  .00001371  00000+0  11093-3 0  9992
2 46149  53.0545 227.4370 0001414  65.1238 294.9897 15.06395549104468
STARLINK-1629           
1 46150U 20057AK  22181.88135724  .00001482  00000+0  11840-3 0  9993
2 46150  53.0547 247.1631 0001460  62.4016 297.7121 15.06395314102926
STARLINK-1631           
1 46151U 20057AL  22181.85741090  .00000949  00000+0  82652-4 0  9997
2 46151  53.0535 227.2664 0001335  76.0761 284.0376 15.06387210103195
STARLINK-1634           
1 46152U 20057AM  22181.57544424  .00001984  00000+0  15213-3 0  9997
2 46152  53.0549 248.5488 0001338  75.8929 284.2209 15.06381560102870
STARLINK-1636           
1 46153U 20057AN  22181.54408686 -.00000855  00000+0 -38532-4 0  9992
2 46153  53.0529 228.6893 0001451  65.4357 294.6783 15.06393550103149
STARLINK-1642           
1 46154U 20057AP  22181.55424129  .00002059  00000+0  15716-3 0  9998
2 46154  53.0530 238.6448 0001365  60.2546 299.8578 15.06386627103018
STARLINK-1667           
1 46155U 20057AQ  22181.77816756  .00000532  00000+0  54604-4 0  9998
2 46155  53.0555 207.6300 0001524  62.7585 297.3559 15.06382992104706
STARLINK-1545           
1 46156U 20057AR  22181.83527873  .00001179  00000+0  98034-4 0  9998
2 46156  53.0553 227.3685 0001364  58.5261 301.5861 15.06397494104444
STARLINK-1587           
1 46157U 20057AS  22182.15412523  .00000547  00000+0  55632-4 0  9995
2 46157  53.0547 205.9495 0001886  49.1172 310.9980 15.06390150104184
STARLINK-1589           
1 46158U 20057AT  22182.08408431  .00001028  00000+0  87898-4 0  9995
2 46158  53.0544 206.2658 0001499  75.3894 284.7261 15.06398095104174
STARLINK-1595           
1 46159U 20057AU  22182.19098778  .00001115  00000+0  93768-4 0  9997
2 46159  53.0544 245.7825 0001473  60.7140 299.3996 15.06394211103625
STARLINK-1598           
1 46160U 20057AV  22181.85003743 -.00000233  00000+0  32522-5 0  9992
2 46160  53.0539 227.3013 0001644  48.0938 312.0191 15.06385270104446
STARLINK-1600           
1 46161U 20057AW  22181.82790904  .00001634  00000+0  12859-3 0  9996
2 46161  53.0541 227.3988 0001352  81.1889 278.9253 15.06396493104448
STARLINK-1603           
1 46162U 20057AX  22181.83160157 -.00000166  00000+0  77335-5 0  9991
2 46162  53.0544 227.4007 0001432  66.2980 293.8159 15.06387904104459
STARLINK-1610           
1 46163U 20057AY  22181.76340567  .00000500  00000+0  52510-4 0  9997
2 46163  53.0547 207.6831 0001688  52.2431 307.8711 15.06389499103468
STARLINK-1612           
1 46164U 20057AZ  22181.49433744  .00000489  00000+0  51720-4 0  9996
2 46164  53.0533 208.8947 0001454  70.6188 289.4958 15.06384562104688
